{
  "norad_id": 62112,
  "name": "GUANGCHUAN 02",
  "history": [
    {
      "epoch": "2026-05-02T10:43:49.095264Z",
      "apogee_km": 527.5337902982083,
      "perigee_km": 518.6919089908433,
      "latitude_deg": 2.974105734381809e-06,
      "longitude_deg": 3.39883254106869,
      "height_km": 527.8625693936546,
      "semi_major_axis_km": 6901.249849644525,
      "eccentricity": 0.0006406,
      "inclination_deg": 49.9437,
      "raan_deg": 24.7184,
      "arg_perigee_deg": 162.1093,
      "mean_anomaly_deg": 198.0084,
      "mean_motion_rev_day": 15.14297258
    },
    {
      "epoch": "2026-05-03T19:59:17.764800Z",
      "apogee_km": 527.5183339264213,
      "perigee_km": 518.6364709904565,
      "latitude_deg": 8.051762811473167e-06,
      "longitude_deg": -143.57957938815042,
      "height_km": 527.9539127017526,
      "semi_major_axis_km": 6901.214402458439,
      "eccentricity": 0.0006435,
      "inclination_deg": 49.9436,
      "raan_deg": 17.9753,
      "arg_perigee_deg": 167.3539,
      "mean_anomaly_deg": 192.7574,
      "mean_motion_rev_day": 15.14308925
    },
    {
      "epoch": "2026-05-04T19:44:37.609728Z",
      "apogee_km": 527.499609577143,
      "perigee_km": 518.5998391773865,
      "latitude_deg": -3.590183932974809e-05,
      "longitude_deg": -145.70441101422946,
      "height_km": 527.9920743907002,
      "semi_major_axis_km": 6901.186724377265,
      "eccentricity": 0.0006448,
      "inclination_deg": 49.9437,
      "raan_deg": 13.1588,
      "arg_perigee_deg": 171.2807,
      "mean_anomaly_deg": 188.8256,
      "mean_motion_rev_day": 15.14318035
    }
  ]
}